54671,ONEWEB-0607,2022,108.94,148.0,+,87.92,Active,1,LEO,USA,UK,Commercial,Communications,Falcon,1 54671U 22166AF  25144.42460611  .00000063  00000+0  12101-3 0  9996,2 54671  87.9244 321.5027 0001768  86.5846 273.5490 13.21825129120184,13.21825129,0.0001768,LEO
54672,ONEWEB-0608,2022,108.94,148.0,+,87.92,Active,1,LEO,USA,UK,Commercial,Communications,Falcon,1 54672U 22166AG  25144.43091260  .00000077  00000+0  15551-3 0  9995,2 54672  87.9227 321.4966 0001856  74.0627 286.0711 13.21824128120198,13.21824128,0.0001856,LEO
54673,ONEWEB-0610,2022,108.94,148.0,+,87.92,Active,1,LEO,USA,UK,Commercial,Communications,Falcon,1 54673U 22166AH  25144.48769294  .00000026  00000+0  31375-4 0  9997,2 54673  87.9246 321.5094 0001927  77.9160 282.2189 13.21825587120104,13.21825587,0.0001927,LEO
54674,ONEWEB-0611,2022,108.94,148.0,+,87.92,Active,1,LEO,USA,UK,Commercial,Communications,Falcon,1 54674U 22166AJ  25144.48137961  .00000016  00000+0  68796-5 0  9995,2 54674  87.9245 321.5076 0001798 100.3332 259.8005 13.21825153120096,13.21825153,0.0001798,LEO
54675,ONEWEB-0612,2022,108.94,148.0,+,87.92,Active,1,LEO,USA,UK,Commercial,Communications,Falcon,1 54675U 22166AK  25144.49400338  .00000047  00000+0  81572-4 0  9998,2 54675  87.9243 321.4831 0001812  84.4401 275.6940 13.21824901120082,13.21824901,0.0001812,LEO
54676,ONEWEB-0615,2022,108.94,148.0,+,87.92,Active,1,LEO,USA,UK,Commercial,Communications,Falcon,1 54676U 22166AL  25144.47508487  .00000017  00000+0  95447-5 0  9995,2 54676  87.9244 321.5130 0001825  93.0747 267.0596 13.21827755120093,13.21827755,0.0001825,LEO
54677,ONEWEB-0655,2022,108.94,148.0,+,87.92,Active,1,LEO,USA,UK,Commercial,Communications,Falcon,1 54677U 22166AM  25144.44827651  .00000118  00000+0  25530-3 0  9996,2 54677  87.9245 321.5226 0001456  86.7177 273.4124 13.21826962120083,13.21826962,0.0001456,LEO
54678,ONEWEB-0659,2022,108.94,148.0,+,87.92,Active,1,LEO,USA,UK,Commercial,Communications,Falcon,1 54678U 22166AN  25144.46561756  .00000100  00000+0  21026-3 0  9997,2 54678  87.9244 321.5209 0001961  94.1137 266.0221 13.21825456120177,13.21825456,0.0001961,LEO
